[{"OBJECT_NAME":"ONEWEB-0660","OBJECT_ID":"2023-029AA","EPOCH":"2025-10-10T05:34:02.452512","MEAN_MOTION":13.14501738,"ECCENTRICITY":0.00015863,"INCLINATION":87.9066,"RA_OF_ASC_NODE":339.4747,"ARG_OF_PERICENTER":104.7397,"MEAN_ANOMALY":255.3908,"EPHEMERIS_TYPE":0,"CLASSIFICATION_TYPE":"U","NORAD_CAT_ID":55820,"ELEMENT_SET_NO":999,"REV_AT_EPOCH":12656,"BSTAR":0.00058747206,"MEAN_MOTION_DOT":2.31e-6,"MEAN_MOTION_DDOT":0},{"OBJECT_NAME":"ONEWEB-0661","OBJECT_ID":"2023-029AB","EPOCH":"2025-10-10T04:34:39.728640","MEAN_MOTION":13.14503787,"ECCENTRICITY":0.00015211,"INCLINATION":87.9051,"RA_OF_ASC_NODE":339.5534,"ARG_OF_PERICENTER":100.573,"MEAN_ANOMALY":259.5571,"EPHEMERIS_TYPE":0,"CLASSIFICATION_TYPE":"U","NORAD_CAT_ID":55821,"ELEMENT_SET_NO":999,"REV_AT_EPOCH":12654,"BSTAR":-0.00044558949,"MEAN_MOTION_DOT":-1.52e-6,"MEAN_MOTION_DDOT":0},{"OBJECT_NAME":"ONEWEB-0662","OBJECT_ID":"2023-029AC","EPOCH":"2025-10-10T05:24:53.909280","MEAN_MOTION":13.14502592,"ECCENTRICITY":0.00016,"INCLINATION":87.9054,"RA_OF_ASC_NODE":339.5516,"ARG_OF_PERICENTER":107.202,"MEAN_ANOMALY":252.9285,"EPHEMERIS_TYPE":0,"CLASSIFICATION_TYPE":"U","NORAD_CAT_ID":55822,"ELEMENT_SET_NO":999,"REV_AT_EPOCH":12659,"BSTAR":0.00076401568,"MEAN_MOTION_DOT":2.96e-6,"MEAN_MOTION_DDOT":0},{"OBJECT_NAME":"ONEWEB-0663","OBJECT_ID":"2023-029AD","EPOCH":"2025-10-10T04:21:23.639040","MEAN_MOTION":13.20848459,"ECCENTRICITY":0.00016787,"INCLINATION":87.9249,"RA_OF_ASC_NODE":324.3424,"ARG_OF_PERICENTER":109.1772,"MEAN_ANOMALY":250.9543,"EPHEMERIS_TYPE":0,"CLASSIFICATION_TYPE":"U","NORAD_CAT_ID":55823,"ELEMENT_SET_NO":999,"REV_AT_EPOCH":12814,"BSTAR":-5.001108e-5,"MEAN_MOTION_DOT":-7.0e-8,"MEAN_MOTION_DDOT":0},{"OBJECT_NAME":"ONEWEB-0664","OBJECT_ID":"2023-029AE","EPOCH":"2025-10-10T04:39:25.570080","MEAN_MOTION":13.20773367,"ECCENTRICITY":0.00015829,"INCLINATION":87.9228,"RA_OF_ASC_NODE":324.356,"ARG_OF_PERICENTER":88.9695,"MEAN_ANOMALY":271.162,"EPHEMERIS_TYPE":0,"CLASSIFICATION_TYPE":"U","NORAD_CAT_ID":55824,"ELEMENT_SET_NO":999,"REV_AT_EPOCH":12814,"BSTAR":-0.00027157784,"MEAN_MOTION_DOT":-9.7e-7,"MEAN_MOTION_DDOT":0},{"OBJECT_NAME":"ONEWEB-0665","OBJECT_ID":"2023-029AF","EPOCH":"2025-10-10T04:30:05.579712","MEAN_MOTION":13.14504486,"ECCENTRICITY":0.00016799,"INCLINATION":87.9056,"RA_OF_ASC_NODE":339.5302,"ARG_OF_PERICENTER":106.4155,"MEAN_ANOMALY":253.716,"EPHEMERIS_TYPE":0,"CLASSIFICATION_TYPE":"U","NORAD_CAT_ID":55825,"ELEMENT_SET_NO":999,"REV_AT_EPOCH":12656,"BSTAR":-0.0004246294,"MEAN_MOTION_DOT":-1.45e-6,"MEAN_MOTION_DDOT":0},{"OBJECT_NAME":"ONEWEB-0666","OBJECT_ID":"2023-029AG","EPOCH":"2025-10-10T04:30:19.369152","MEAN_MOTION":13.20773812,"ECCENTRICITY":0.00026235,"INCLINATION":87.9229,"RA_OF_ASC_NODE":324.3449,"ARG_OF_PERICENTER":88.1894,"MEAN_ANOMALY":271.954,"EPHEMERIS_TYPE":0,"CLASSIFICATION_TYPE":"U","NORAD_CAT_ID":55826,"ELEMENT_SET_NO":999,"REV_AT_EPOCH":12815,"BSTAR":-8.8047806e-5,"MEAN_MOTION_DOT":-2.3e-7,"MEAN_MOTION_DDOT":0},{"OBJECT_NAME":"ONEWEB-0667","OBJECT_ID":"2023-029AH","EPOCH":"2025-10-10T04:21:10.156320","MEAN_MOTION":13.20803917,"ECCENTRICITY":0.00021096,"INCLINATION":87.9234,"RA_OF_ASC_NODE":324.2754,"ARG_OF_PERICENTER":95.0328,"MEAN_ANOMALY":265.1047,"EPHEMERIS_TYPE":0,"CLASSIFICATION_TYPE":"U","NORAD_CAT_ID":55827,"ELEMENT_SET_NO":999,"REV_AT_EPOCH":12814,"BSTAR":0.0039221586,"MEAN_MOTION_DOT":1.609e-5,"MEAN_MOTION_DDOT":0},{"OBJECT_NAME":"ONEWEB-0669","OBJECT_ID":"2023-029AJ","EPOCH":"2025-10-10T04:14:27.216960","MEAN_MOTION":13.20771464,"ECCENTRICITY":0.0001922,"INCLINATION":87.9227,"RA_OF_ASC_NODE":324.3152,"ARG_OF_PERICENTER":75.3098,"MEAN_ANOMALY":284.8248,"EPHEMERIS_TYPE":0,"CLASSIFICATION_TYPE":"U","NORAD_CAT_ID":55828,"ELEMENT_SET_NO":999,"REV_AT_EPOCH":12814,"BSTAR":0.00015658228,"MEAN_MOTION_DOT":7.7e-7,"MEAN_MOTION_DDOT":0},{"OBJECT_NAME":"ONEWEB-0670","OBJECT_ID":"2023-029AK","EPOCH":"2025-10-10T03:58:07.605120","MEAN_MOTION":13.14501845,"ECCENTRICITY":0.00014796,"INCLINATION":87.906,"RA_OF_ASC_NODE":339.5543,"ARG_OF_PERICENTER":96.6384,"MEAN_ANOMALY":263.4915,"EPHEMERIS_TYPE":0,"CLASSIFICATION_TYPE":"U","NORAD_CAT_ID":55829,"ELEMENT_SET_NO":999,"REV_AT_EPOCH":12658,"BSTAR":0.00046339347,"MEAN_MOTION_DOT":1.85e-6,"MEAN_MOTION_DDOT":0},{"OBJECT_NAME":"ONEWEB-0671","OBJECT_ID":"2023-029AL","EPOCH":"2025-10-10T05:55:54.282720","MEAN_MOTION":13.19726554,"ECCENTRICITY":0.00017183,"INCLINATION":87.9267,"RA_OF_ASC_NODE":354.7011,"ARG_OF_PERICENTER":101.8728,"MEAN_ANOMALY":258.2598,"EPHEMERIS_TYPE":0,"CLASSIFICATION_TYPE":"U","NORAD_CAT_ID":55830,"ELEMENT_SET_NO":999,"REV_AT_EPOCH":12593,"BSTAR":8.1002617e-5,"MEAN_MOTION_DOT":4.5e-7,"MEAN_MOTION_DDOT":0},{"OBJECT_NAME":"ONEWEB-0672","OBJECT_ID":"2023-029AM","EPOCH":"2025-10-10T04:07:37.651584","MEAN_MOTION":13.20771537,"ECCENTRICITY":0.00021241,"INCLINATION":87.9224,"RA_OF_ASC_NODE":324.2976,"ARG_OF_PERICENTER":90.7854,"MEAN_ANOMALY":269.3523,"EPHEMERIS_TYPE":0,"CLASSIFICATION_TYPE":"U","NORAD_CAT_ID":55831,"ELEMENT_SET_NO":999,"REV_AT_EPOCH":12814,"BSTAR":6.2737876e-5,"MEAN_MOTION_DOT":3.8e-7,"MEAN_MOTION_DDOT":0},{"OBJECT_NAME":"ONEWEB-0673","OBJECT_ID":"2023-029AN","EPOCH":"2025-10-10T05:21:47.464128","MEAN_MOTION":13.19723515,"ECCENTRICITY":0.00019549,"INCLINATION":87.9283,"RA_OF_ASC_NODE":354.6758,"ARG_OF_PERICENTER":106.4107,"MEAN_ANOMALY":253.7241,"EPHEMERIS_TYPE":0,"CLASSIFICATION_TYPE":"U","NORAD_CAT_ID":55832,"ELEMENT_SET_NO":999,"REV_AT_EPOCH":12593,"BSTAR":0.0003827108,"MEAN_MOTION_DOT":1.66e-6,"MEAN_MOTION_DDOT":0},{"OBJECT_NAME":"ONEWEB-0674","OBJECT_ID":"2023-029AP","EPOCH":"2025-10-10T05:02:04.242912","MEAN_MOTION":13.14503329,"ECCENTRICITY":0.00014061,"INCLINATION":87.9048,"RA_OF_ASC_NODE":339.5274,"ARG_OF_PERICENTER":93.6779,"MEAN_ANOMALY":266.4512,"EPHEMERIS_TYPE":0,"CLASSIFICATION_TYPE":"U","NORAD_CAT_ID":55833,"ELEMENT_SET_NO":999,"REV_AT_EPOCH":12657,"BSTAR":0.00018040252,"MEAN_MOTION_DOT":8.0e-7,"MEAN_MOTION_DDOT":0},{"OBJECT_NAME":"ONEWEB-0675","OBJECT_ID":"2023-029AQ","EPOCH":"2025-10-10T05:44:32.044992","MEAN_MOTION":13.19724757,"ECCENTRICITY":0.00022045,"INCLINATION":87.9266,"RA_OF_ASC_NODE":354.7132,"ARG_OF_PERICENTER":100.1577,"MEAN_ANOMALY":259.9805,"EPHEMERIS_TYPE":0,"CLASSIFICATION_TYPE":"U","NORAD_CAT_ID":55834,"ELEMENT_SET_NO":999,"REV_AT_EPOCH":12595,"BSTAR":-0.00051324924,"MEAN_MOTION_DOT":-1.93e-6,"MEAN_MOTION_DDOT":0},{"OBJECT_NAME":"ONEWEB-0720","OBJECT_ID":"2023-029AR","EPOCH":"2025-10-10T05:33:09.970560","MEAN_MOTION":13.19724328,"ECCENTRICITY":0.00017761,"INCLINATION":87.9267,"RA_OF_ASC_NODE":354.7119,"ARG_OF_PERICENTER":112.5065,"MEAN_ANOMALY":247.6256,"EPHEMERIS_TYPE":0,"CLASSIFICATION_TYPE":"U","NORAD_CAT_ID":55835,"ELEMENT_SET_NO":999,"REV_AT_EPOCH":12587,"BSTAR":0.00036784452,"MEAN_MOTION_DOT":1.6e-6,"MEAN_MOTION_DDOT":0}]
