ONEWEB-0660             
1 55820U 23029AA  25283.23197283  .00000231  00000+0  58747-3 0  9990
2 55820  87.9066 339.4747 0001586 104.7397 255.3908 13.14501738126561
ONEWEB-0661             
1 55821U 23029AB  25283.19073760 -.00000152  00000+0 -44559-3 0  9999
2 55821  87.9051 339.5534 0001521 100.5730 259.5571 13.14503787126541
ONEWEB-0662             
1 55822U 23029AC  25283.22562395  .00000296  00000+0  76402-3 0  9990
2 55822  87.9054 339.5516 0001600 107.2020 252.9285 13.14502592126596
ONEWEB-0663             
1 55823U 23029AD  25283.18152360 -.00000007  00000+0 -50011-4 0  9994
2 55823  87.9249 324.3424 0001678 109.1772 250.9543 13.20848459128143
ONEWEB-0664             
1 55824U 23029AE  25283.19404595 -.00000097  00000+0 -27158-3 0  9990
2 55824  87.9228 324.3560 0001582  88.9695 271.1620 13.20773367128140
ONEWEB-0665             
1 55825U 23029AF  25283.18756458 -.00000145  00000+0 -42463-3 0  9998
2 55825  87.9056 339.5302 0001679 106.4155 253.7160 13.14504486126562
ONEWEB-0666             
1 55826U 23029AG  25283.18772418 -.00000023  00000+0 -88048-4 0  9998
2 55826  87.9229 324.3449 0002623  88.1894 271.9540 13.20773812128154
ONEWEB-0667             
1 55827U 23029AH  25283.18136755  .00001609  00000+0  39222-2 0  9994
2 55827  87.9234 324.2754 0002109  95.0328 265.1047 13.20803917128143
ONEWEB-0669             
1 55828U 23029AJ  25283.17670390  .00000077  00000+0  15658-3 0  9998
2 55828  87.9227 324.3152 0001922  75.3098 284.8248 13.20771464128148
ONEWEB-0670             
1 55829U 23029AK  25283.16536580  .00000185  00000+0  46339-3 0  9990
2 55829  87.9060 339.5543 0001479  96.6384 263.4915 13.14501845126584
ONEWEB-0671             
1 55830U 23029AL  25283.24715605  .00000045  00000+0  81003-4 0  9991
2 55830  87.9267 354.7011 0001718 101.8728 258.2598 13.19726554125939
ONEWEB-0672             
1 55831U 23029AM  25283.17196356  .00000038  00000+0  62738-4 0  9996
2 55831  87.9224 324.2976 0002124  90.7854 269.3523 13.20771537128143
ONEWEB-0673             
1 55832U 23029AN  25283.22346602  .00000166  00000+0  38271-3 0  9990
2 55832  87.9283 354.6758 0001954 106.4107 253.7241 13.19723515125939
ONEWEB-0674             
1 55833U 23029AP  25283.20977133  .00000080  00000+0  18040-3 0  9995
2 55833  87.9048 339.5274 0001406  93.6779 266.4512 13.14503329126575
ONEWEB-0675             
1 55834U 23029AQ  25283.23925978 -.00000193  00000+0 -51325-3 0  9999
2 55834  87.9266 354.7132 0002204 100.1577 259.9805 13.19724757125955
ONEWEB-0720             
1 55835U 23029AR  25283.23136540  .00000160  00000+0  36784-3 0  9993
2 55835  87.9267 354.7119 0001776 112.5065 247.6256 13.19724328125873
